CARTOSAT-2F             
1 43111U 18004A   26141.92838988  .00001381  00000+0  68784-4 0  9991
2 43111  97.4795 201.8158 0001278  47.3013 312.8329 15.19233473463340
GAOFEN-1 02             
1 43259U 18031A   26141.93567558  .00000595  00000+0  92909-4 0  9999
2 43259  98.0532 204.5335 0004673  93.7102 266.4642 14.76438163438824
GAOFEN-1 03             
1 43260U 18031B   26141.98166225  .00000480  00000+0  76315-4 0  9998
2 43260  98.0528 204.4407 0003288 136.8672 223.2796 14.76484685438823
GAOFEN-1 04             
1 43262U 18031D   26141.95731218  .00000568  00000+0  89124-4 0  9996
2 43262  98.0533 204.6038 0001939 111.8240 248.3176 14.76436186438810
SENTINEL-3B             
1 43437U 18039A   26141.68060115  .00000064  00000+0  44395-4 0  9991
2 43437  98.6257 209.5916 0001294  76.8384 283.2941 14.26740446420344
GAOFEN-5 01             
1 43461U 18043A   26141.89258364  .00000195  00000+0  50309-4 0  9998
2 43461  98.4556 112.9299 0002452 131.3692 228.7719 14.60584129427850
GAOFEN-6                
1 43484U 18048A   26141.98194321 -.00000254  00000+0 -29378-4 0  9990
2 43484  97.7764 205.6240 0010518 259.1945 100.8082 14.76593949429522
GAOFEN-11 01            
1 43585U 18063A   26141.91596972  .00008375  00000+0  12893-3 0  9993
2 43585  97.1298 208.8827 0005598  79.8333 280.3552 15.54438855436262
ICESAT-2                
1 43613U 18070A   26141.89794868  .00006916  00000+0  25102-3 0  9990
2 43613  92.0055 283.8823 0002760 121.9613 238.1905 15.28292976428443
HYSIS                   
1 43719U 18096A   26141.95559135  .00001019  00000+0  14618-3 0  9997
2 43719  97.9842 208.9069 0001103 117.6267 242.5056 14.78632788403548
KAZSTSAT                
1 43783U 18099AB  26141.54447941  .00000395  00000+0  36419-4 0  9997
2 43783  97.4285 174.6858 0006067 139.4536 220.7141 14.99795938407317
SAUDISAT 5A             
1 43831U 18102A   26141.96816270  .00004082  00000+0  15319-3 0  9999
2 43831  97.3076 204.0579 0008680 218.1689 141.8937 15.27741394411672
