
    {
        "ARG_OF_PERICENTER": 47.3013,
        "BSTAR": 6.8784181e-05,
        "CLASSIFICATION_TYPE": "U",
        "ECCENTRICITY": 0.00012788,
        "ELEMENT_SET_NO": 999,
        "EPHEMERIS_TYPE": 0,
        "EPOCH": "2026-05-21T22:16:52.885632",
        "INCLINATION": 97.4795,
        "MEAN_ANOMALY": 312.8329,
        "MEAN_MOTION": 15.19233473,
        "MEAN_MOTION_DDOT": 0,
        "MEAN_MOTION_DOT": 1.381e-05,
        "NORAD_CAT_ID": 43111,
        "OBJECT_ID": "2018-004A",
        "OBJECT_NAME": "CARTOSAT-2F",
        "RA_OF_ASC_NODE": 201.8158,
        "REV_AT_EPOCH": 46334
    },
    {
        "ARG_OF_PERICENTER": 93.7102,
        "BSTAR": 9.2909276e-05,
        "CLASSIFICATION_TYPE": "U",
        "ECCENTRICITY": 0.00046733,
        "ELEMENT_SET_NO": 999,
        "EPHEMERIS_TYPE": 0,
        "EPOCH": "2026-05-21T22:27:22.370112",
        "INCLINATION": 98.0532,
        "MEAN_ANOMALY": 266.4642,
        "MEAN_MOTION": 14.76438163,
        "MEAN_MOTION_DDOT": 0,
        "MEAN_MOTION_DOT": 5.95e-06,
        "NORAD_CAT_ID": 43259,
        "OBJECT_ID": "2018-031A",
        "OBJECT_NAME": "GAOFEN-1 02",
        "RA_OF_ASC_NODE": 204.5335,
        "REV_AT_EPOCH": 43882
    },
    {
        "ARG_OF_PERICENTER": 136.8672,
        "BSTAR": 7.6315076e-05,
        "CLASSIFICATION_TYPE": "U",
        "ECCENTRICITY": 0.00032887,
        "ELEMENT_SET_NO": 999,
        "EPHEMERIS_TYPE": 0,
        "EPOCH": "2026-05-21T23:33:35.618400",
        "INCLINATION": 98.0528,
        "MEAN_ANOMALY": 223.2796,
        "MEAN_MOTION": 14.76484685,
        "MEAN_MOTION_DDOT": 0,
        "MEAN_MOTION_DOT": 4.8e-06,
        "NORAD_CAT_ID": 43260,
        "OBJECT_ID": "2018-031B",
        "OBJECT_NAME": "GAOFEN-1 03",
        "RA_OF_ASC_NODE": 204.4407,
        "REV_AT_EPOCH": 43882
    },
    {
        "ARG_OF_PERICENTER": 111.824,
        "BSTAR": 8.9124068e-05,
        "CLASSIFICATION_TYPE": "U",
        "ECCENTRICITY": 0.00019392,
        "ELEMENT_SET_NO": 999,
        "EPHEMERIS_TYPE": 0,
        "EPOCH": "2026-05-21T22:58:31.772352",
        "INCLINATION": 98.0533,
        "MEAN_ANOMALY": 248.3176,
        "MEAN_MOTION": 14.76436186,
        "MEAN_MOTION_DDOT": 0,
        "MEAN_MOTION_DOT": 5.68e-06,
        "NORAD_CAT_ID": 43262,
        "OBJECT_ID": "2018-031D",
        "OBJECT_NAME": "GAOFEN-1 04",
        "RA_OF_ASC_NODE": 204.6038,
        "REV_AT_EPOCH": 43881
    },
    {
        "ARG_OF_PERICENTER": 76.8384,
        "BSTAR": 4.439472e-05,
        "CLASSIFICATION_TYPE": "U",
        "ECCENTRICITY": 0.00012943,
        "ELEMENT_SET_NO": 999,
        "EPHEMERIS_TYPE": 0,
        "EPOCH": "2026-05-21T16:20:03.939360",
        "INCLINATION": 98.6257,
        "MEAN_ANOMALY": 283.2941,
        "MEAN_MOTION": 14.26740446,
        "MEAN_MOTION_DDOT": 0,
        "MEAN_MOTION_DOT": 6.4e-07,
        "NORAD_CAT_ID": 43437,
        "OBJECT_ID": "2018-039A",
        "OBJECT_NAME": "SENTINEL-3B",
        "RA_OF_ASC_NODE": 209.5916,
        "REV_AT_EPOCH": 42034
    },
    {
        "ARG_OF_PERICENTER": 131.3692,
        "BSTAR": 5.030925e-05,
        "CLASSIFICATION_TYPE": "U",
        "ECCENTRICITY": 0.00024522,
        "ELEMENT_SET_NO": 999,
        "EPHEMERIS_TYPE": 0,
        "EPOCH": "2026-05-21T21:25:19.226496",
        "INCLINATION": 98.4556,
        "MEAN_ANOMALY": 228.7719,
        "MEAN_MOTION": 14.60584129,
        "MEAN_MOTION_DDOT": 0,
        "MEAN_MOTION_DOT": 1.95e-06,
        "NORAD_CAT_ID": 43461,
        "OBJECT_ID": "2018-043A",
        "OBJECT_NAME": "GAOFEN-5 01",
        "RA_OF_ASC_NODE": 112.9299,
        "REV_AT_EPOCH": 42785
    },
    {
        "ARG_OF_PERICENTER": 259.1945,
        "BSTAR": -2.9377809e-05,
        "CLASSIFICATION_TYPE": "U",
        "ECCENTRICITY": 0.00105188,
        "ELEMENT_SET_NO": 999,
        "EPHEMERIS_TYPE": 0,
        "EPOCH": "2026-05-21T23:33:59.893344",
        "INCLINATION": 97.7764,
        "MEAN_ANOMALY": 100.8082,
        "MEAN_MOTION": 14.76593949,
        "MEAN_MOTION_DDOT": 0,
        "MEAN_MOTION_DOT": -2.54e-06,
        "NORAD_CAT_ID": 43484,
        "OBJECT_ID": "2018-048A",
        "OBJECT_NAME": "GAOFEN-6",
        "RA_OF_ASC_NODE": 205.624,
        "REV_AT_EPOCH": 42952
    },
    {
        "ARG_OF_PERICENTER": 79.8333,
        "BSTAR": 0.00012892709,
        "CLASSIFICATION_TYPE": "U",
        "ECCENTRICITY": 0.00055984,
        "ELEMENT_SET_NO": 999,
        "EPHEMERIS_TYPE": 0,
        "EPOCH": "2026-05-21T21:58:59.783808",
        "INCLINATION": 97.1298,
        "MEAN_ANOMALY": 280.3552,
        "MEAN_MOTION": 15.54438855,
        "MEAN_MOTION_DDOT": 0,
        "MEAN_MOTION_DOT": 8.375e-05,
        "NORAD_CAT_ID": 43585,
        "OBJECT_ID": "2018-063A",
        "OBJECT_NAME": "GAOFEN-11 01",
        "RA_OF_ASC_NODE": 208.8827,
        "REV_AT_EPOCH": 43626
    },
    {
        "ARG_OF_PERICENTER": 121.9613,
        "BSTAR": 0.00025102127,
        "CLASSIFICATION_TYPE": "U",
        "ECCENTRICITY": 0.00027606,
        "ELEMENT_SET_NO": 999,
        "EPHEMERIS_TYPE": 0,
        "EPOCH": "2026-05-21T21:33:02.765952",
        "INCLINATION": 92.0055,
        "MEAN_ANOMALY": 238.1905,
        "MEAN_MOTION": 15.28292976,
        "MEAN_MOTION_DDOT": 0,
        "MEAN_MOTION_DOT": 6.916e-05,
        "NORAD_CAT_ID": 43613,
        "OBJECT_ID": "2018-070A",
        "OBJECT_NAME": "ICESAT-2",
        "RA_OF_ASC_NODE": 283.8823,
        "REV_AT_EPOCH": 42844
    },
    {
        "ARG_OF_PERICENTER": 117.6267,
        "BSTAR": 0.00014618043,
        "CLASSIFICATION_TYPE": "U",
        "ECCENTRICITY": 0.00011034,
        "ELEMENT_SET_NO": 999,
        "EPHEMERIS_TYPE": 0,
        "EPOCH": "2026-05-21T22:56:03.092640",
        "INCLINATION": 97.9842,
        "MEAN_ANOMALY": 242.5056,
        "MEAN_MOTION": 14.78632788,
        "MEAN_MOTION_DDOT": 0,
        "MEAN_MOTION_DOT": 1.019e-05,
        "NORAD_CAT_ID": 43719,
        "OBJECT_ID": "2018-096A",
        "OBJECT_NAME": "HYSIS",
        "RA_OF_ASC_NODE": 208.9069,
        "REV_AT_EPOCH": 40354
    },
    {
        "ARG_OF_PERICENTER": 139.4536,
        "BSTAR": 3.6419e-05,
        "CLASSIFICATION_TYPE": "U",
        "ECCENTRICITY": 0.0006067,
        "ELEMENT_SET_NO": 999,
        "EPHEMERIS_TYPE": 0,
        "EPOCH": "2026-05-21T13:04:03.021024",
        "INCLINATION": 97.4285,
        "MEAN_ANOMALY": 220.7141,
        "MEAN_MOTION": 14.99795938,
        "MEAN_MOTION_DDOT": 0,
        "MEAN_MOTION_DOT": 3.95e-06,
        "NORAD_CAT_ID": 43783,
        "OBJECT_ID": "2018-099AB",
        "OBJECT_NAME": "KAZSTSAT",
        "RA_OF_ASC_NODE": 174.6858,
        "REV_AT_EPOCH": 40731
    },
    {
        "ARG_OF_PERICENTER": 218.1689,
        "BSTAR": 0.00015319232,
        "CLASSIFICATION_TYPE": "U",
        "ECCENTRICITY": 0.00086805,
        "ELEMENT_SET_NO": 999,
        "EPHEMERIS_TYPE": 0,
        "EPOCH": "2026-05-21T23:14:09.257280",
        "INCLINATION": 97.3076,
        "MEAN_ANOMALY": 141.8937,
        "MEAN_MOTION": 15.27741394,
        "MEAN_MOTION_DDOT": 0,
        "MEAN_MOTION_DOT": 4.082e-05,
        "NORAD_CAT_ID": 43831,
        "OBJECT_ID": "2018-102A",
        "OBJECT_NAME": "SAUDISAT 5A",
        "RA_OF_ASC_NODE": 204.0579,
        "REV_AT_EPOCH": 41167
    }